     2.100          NAVIGATION                              RINEX VERSION / TYPE
fic2rin                                 01/07/2017 00:06:24 PGM / RUN BY / DATE
                                                            END OF HEADER
 5 17  1  6 12  0  0.0 -.678081996739D-04  .216004991671D-11  .000000000000D+00
     .630000000000D+02 -.435000000000D+02  .504306720685D-08  .325796157232D+00
    -.213645398617D-05  .490382954013D-02  .859983265400D-05  .515366181564D+04
     .475200000000D+06 -.149011611938D-07  .113973191857D+01  .521540641785D-07
     .946333240018D+00  .203406250000D+03  .567199151058D+00 -.833820446254D-08
    -.288940606965D-09  .100000000000D+01  .193000000000D+04  .000000000000D+00
     .240000000000D+01  .000000000000D+00 -.107102096081D-07  .630000000000D+02
     .468006000000D+06  .400000000000D+01
 6 17  1  6 12  0  0.0  .295700505376D-03  .500222085975D-11  .000000000000D+00
     .770000000000D+02 -.127500000000D+02  .478305637635D-08 -.221845712938D+01
    -.581145286560D-06  .500566908158D-03  .592693686485D-05  .515359078789D+04
     .475200000000D+06 -.316649675369D-07  .104477363833D+00  .596046447754D-07
     .966318103919D+00  .268625000000D+03 -.144901424252D+01 -.821105630917D-08
     .251081887140D-09  .100000000000D+01  .193000000000D+04  .000000000000D+00
     .240000000000D+01  .000000000000D+00  .419095158577D-08  .770000000000D+02
     .468006000000D+06  .400000000000D+01
 7 17  1  6 12  0  0.0  .395186711103D-03 -.363797880709D-11  .000000000000D+00
     .250000000000D+02  .561250000000D+02  .458054794106D-08  .304676002777D+01
     .279769301414D-05  .100732279243D-01  .492483377457D-05  .515361219025D+04
     .475200000000D+06 -.102445483208D-06 -.301253626183D+01 -.819563865662D-07
     .964204029299D+00  .286593750000D+03 -.261426649634D+01 -.813962476233D-08
     .392873507616D-10  .100000000000D+01  .193000000000D+04  .000000000000D+00
     .240000000000D+01  .000000000000D+00 -.111758708954D-07  .250000000000D+02
     .468006000000D+06  .400000000000D+01
 8 17  1  6 12  0  0.0 -.450517982244D-04 -.136424205266D-11  .000000000000D+00
     .390000000000D+02 -.159375000000D+02  .430517932800D-08  .242256657728D+00
    -.853091478348D-06  .233857659623D-02  .993162393570D-05  .515357237434D+04
     .475200000000D+06  .167638063431D-07 -.949042853959D+00 -.223517417908D-07
     .965448539561D+00  .188406250000D+03 -.935192719468D+00 -.805462122159D-08
     .310727228751D-09  .100000000000D+01  .193000000000D+04  .000000000000D+00
     .240000000000D+01  .000000000000D+00  .512227416039D-08  .390000000000D+02
     .468006000000D+06  .400000000000D+01
 9 17  1  6 12  0  0.0  .278188847005D-03  .738964445191D-11  .000000000000D+00
     .300000000000D+02  .576562500000D+02  .457483341732D-08 -.263610976798D+00
     .294297933578D-05  .874200602993D-03  .107623636723D-04  .515371879578D+04
     .475200000000D+06 -.931322574615D-08  .219238922682D+01  .372529029846D-08
     .953815491067D+00  .166843750000D+03  .174346704489D+01 -.804426364730D-08
    -.500020827875D-11  .100000000000D+01  .193000000000D+04  .000000000000D+00
     .240000000000D+01  .000000000000D+00  .139698386192D-08  .300000000000D+02
     .468006000000D+06  .400000000000D+01
10 17  1  6 12  0  0.0 -.114473979920D-03  .147792889038D-11  .000000000000D+00
     .920000000000D+02 -.357500000000D+02  .477019869792D-08  .163781905109D+01
    -.176578760147D-05  .208804698195D-02  .928714871407D-05  .515367677689D+04
     .475200000000D+06  .894069671631D-07  .115084201335D+01  .109896063805D-06
     .959522717778D+00  .200375000000D+03 -.294156748425D+01 -.817319758934D-08
    -.308941440080D-09  .100000000000D+01  .193000000000D+04  .000000000000D+00
     .240000000000D+01  .000000000000D+00  .232830643654D-08  .920000000000D+02
     .468006000000D+06  .400000000000D+01
11 17  1  6 12  0  0.0 -.668145716190D-03  .113686837722D-11  .000000000000D+00
     .380000000000D+02  .102187500000D+02  .608239621336D-08  .309484497470D+01
     .441446900368D-06  .166581100784D-01  .636838376522D-05  .515369232941D+04
     .475200000000D+06  .325962901115D-06 -.279673831938D+00 -.372529029846D-07
     .899497050200D+00  .219343750000D+03  .161060280318D+01 -.865714631918D-08
     .400730977768D-09  .100000000000D+01  .193000000000D+04  .000000000000D+00
     .240000000000D+01  .000000000000D+00 -.121071934700D-07  .380000000000D+02
     .468006000000D+06  .400000000000D+01
12 17  1  6 12  0  0.0  .389100052416D-03 -.227373675443D-12  .000000000000D+00
     .410000000000D+02 -.345937500000D+02  .371658338204D-08  .245912257989D+01
    -.185333192348D-05  .623860920314D-02  .731647014618D-05  .515360788155D+04
     .475200000000D+06 -.447034835815D-07 -.193159257671D+01 -.726431608200D-07
     .989727125079D+00  .253468750000D+03  .779481537518D+00 -.776568061463D-08
    -.142505935944D-09  .100000000000D+01  .193000000000D+04  .000000000000D+00
     .240000000000D+01  .000000000000D+00 -.125728547573D-07  .410000000000D+02
     .468006000000D+06  .400000000000D+01
13 17  1  6 12  0  0.0 -.636996701360D-04 -.181898940355D-11  .000000000000D+00
     .830000000000D+02  .589062500000D+02  .418588864478D-08 -.219705591501D+01
     .304915010929D-05  .407847319730D-02  .958330929279D-05  .515369171333D+04
     .475200000000D+06  .242143869400D-07  .231648656182D+01  .558793544769D-07
     .970087190928D+00  .200625000000D+03  .186101512533D+01 -.783854079240D-08
    -.289297764699D-10  .100000000000D+01  .193000000000D+04  .000000000000D+00
     .240000000000D+01  .000000000000D+00 -.111758708954D-07  .830000000000D+02
     .468006000000D+06  .400000000000D+01
14 17  1  6 12  0  0.0 -.529284588993D-04 -.181898940355D-11  .000000000000D+00
     .500000000000D+02  .748437500000D+02  .448411535283D-08 -.860806111755D+00
     .385195016861D-05  .863983994350D-02  .996515154839D-05  .515361967278D+04
     .475200000000D+06 -.186264514923D-07  .227798184992D+01  .180676579475D-06
     .962567332644D+00  .190875000000D+03 -.195318712302D+01 -.818176937496D-08
    -.214294640518D-11  .100000000000D+01  .193000000000D+04  .000000000000D+00
     .240000000000D+01  .000000000000D+00 -.931322574615D-08  .500000000000D+02
     .468006000000D+06  .400000000000D+01
15 17  1  6 12  0  0.0 -.339679419994D-03 -.113686837722D-11  .000000000000D+00
     .170000000000D+02  .495000000000D+02  .513342811360D-08 -.127603645791D+01
     .255741178989D-05  .899453309830D-02  .965408980846D-05  .515372838593D+04
     .475200000000D+06  .191852450371D-06  .213428988003D+01 -.856816768646D-07
     .929441055156D+00  .176750000000D+03  .559176838931D+00 -.828855953749D-08
    -.439304013061D-10  .100000000000D+01  .193000000000D+04  .000000000000D+00
     .240000000000D+01  .000000000000D+00 -.107102096081D-07  .170000000000D+02
     .468006000000D+06  .400000000000D+01
16 17  1  6 12  0  0.0  .221105292439D-04  .136424205266D-11  .000000000000D+00
     .740000000000D+02 -.449062500000D+02  .379480092583D-08  .513256408035D+00
    -.224076211452D-05  .897069298662D-02  .764988362789D-05  .515362978172D+04
     .475200000000D+06  .838190317154D-07 -.191275734844D+01  .160187482834D-06
     .990207654169D+00  .245906250000D+03  .382690246779D+00 -.795890294883D-08
    -.267153985179D-09  .100000000000D+01  .193000000000D+04  .000000000000D+00
     .240000000000D+01  .000000000000D+00 -.102445483208D-07  .740000000000D+02
     .468006000000D+06  .400000000000D+01
17 17  1  6 12  0  0.0 -.195069238544D-03  .102318153949D-11  .000000000000D+00
     .650000000000D+02 -.122812500000D+02  .418946022212D-08 -.544262086289D+00
    -.530853867531D-06  .116095606936D-01  .944547355175D-05  .515356116867D+04
     .475200000000D+06 -.987201929092D-07 -.893383272702D+00  .111758708954D-06
     .978659652417D+00  .212281250000D+03 -.188307311239D+01 -.806640742682D-08
     .314655963827D-09  .100000000000D+01  .193000000000D+04  .000000000000D+00
     .240000000000D+01  .000000000000D+00 -.107102096081D-07  .650000000000D+02
     .468006000000D+06  .400000000000D+01
18 17  1  6 12  0  0.0  .589753501117D-03  .284217094304D-11  .000000000000D+00
     .130000000000D+02 -.400625000000D+02  .564416367350D-08  .104778965315D+01
    -.215508043766D-05  .174092581728D-01  .921078026295D-05  .515373524284D+04
     .475200000000D+06 -.344589352608D-06  .111377630521D+01  .931322574615D-08
     .925077201247D+00  .190343750000D+03 -.184195334518D+01 -.882929634706D-08
    -.325727853587D-09  .100000000000D+01  .193000000000D+04  .000000000000D+00
     .240000000000D+01  .000000000000D+00 -.111758708954D-07  .130000000000D+02
     .468006000000D+06  .400000000000D+01
19 17  1  6 12  0  0.0 -.516381114721D-03  .909494701773D-12  .000000000000D+00
     .370000000000D+02 -.138125000000D+02  .409909931537D-08  .263949696754D+01
    -.759959220886D-06  .102163782576D-01  .917352735996D-05  .515364714241D+04
     .475200000000D+06 -.372529029846D-08 -.845192436835D+00 -.176951289177D-06
     .975880340670D+00  .210312500000D+03  .903709435034D+00 -.770210653794D-08
     .302512600864D-09  .100000000000D+01  .193000000000D+04  .000000000000D+00
     .240000000000D+01  .000000000000D+00 -.149011611938D-07  .370000000000D+02
     .468006000000D+06  .400000000000D+01
20 17  1  6 12  0  0.0  .454245600849D-03  .170530256582D-11  .000000000000D+00
     .770000000000D+02 -.405937500000D+02  .544379818462D-08 -.136628688345D+01
    -.204332172871D-05  .472325261217D-02  .825896859169D-05  .515361918640D+04
     .475200000000D+06 -.745058059692D-07  .106225287320D+01  .137835741043D-06
     .926434656099D+00  .201937500000D+03  .153217932423D+01 -.851321175230D-08
    -.251439044874D-09  .100000000000D+01  .193000000000D+04  .000000000000D+00
     .240000000000D+01  .000000000000D+00 -.838190317154D-08  .770000000000D+02
     .468006000000D+06  .400000000000D+01
